AMOS-17                 
1 44479U 19050A   26064.23002380  .00000100  00000+0  00000+0 0  9998
2 44479   0.0460 291.0471 0001438  53.5443 278.1492  1.00271626 24143
